NORAD_CAT_ID,OBJECT_NAME,OBJECT_TYPE,EPOCH,MEAN_MOTION,ECCENTRICITY,INCLINATION,RA_OF_ASC_NODE,ARG_OF_PERICENTER,MEAN_ANOMALY,BSTAR,MEAN_MOTION_DOT,MEAN_MOTION_DDOT,TLE_LINE0,TLE_LINE1,TLE_LINE2,SEMIMAJOR_AXIS,PERIOD,APOGEE,PERIGEE,DECAYED
228,DELTA 1 DEB (YO),DEBRIS,2022-05-26 14:15:50,15.02915911,0.001485,48.4277,256.2466,215.1287,144.8659,0.00027802,3.526e-05,0.0,0 DELTA 1 DEB (YO),1 00228U 62002C   22146.59433667  .00003526  00000-0  27802-3 0  9998,2 00228  48.4277 256.2466 0014850 215.1287 144.8659 15.02915911217653,6936.047,95.814,568.212,547.612,0.0
228,DELTA 1 DEB (YO),DEBRIS,2022-05-26 23:50:15,15.02919009,0.0014864000000000001,48.4278,254.2799,216.8692,143.1211,0.00026235,3.312e-05,0.0,0 DELTA 1 DEB (YO),1   228U 62002C   22146.99323046  .00003312  00000-0  26235-3 0  9993,2   228  48.4278 254.2799 0014864 216.8692 143.1211 15.02919009241840,6936.038000000001,95.814,568.2130000000002,547.5930000000002,0.0
228,DELTA 1 DEB (YO),DEBRIS,2022-05-27 09:24:39,15.02920981,0.0014922000000000002,48.4277,252.313,218.6632,141.3225,0.00022884,2.855e-05,0.0,0 DELTA 1 DEB (YO),1 00228U 62002C   22147.39212374  .00002855  00000-0  22884-3 0  9996,2 00228  48.4277 252.3130 0014922 218.6632 141.3225 15.02920981217777,6936.031999999997,95.81299999999999,568.247,547.547,0.0
228,DELTA 1 DEB (YO),DEBRIS,2022-05-27 14:11:51,15.02922594,0.0014924,48.4277,251.3298,219.5691,140.4145,0.00023221,2.901e-05,0.0,0 DELTA 1 DEB (YO),1 00228U 62002C   22147.59157007  .00002901  00000-0  23221-3 0  9997,2 00228  48.4277 251.3298 0014924 219.5691 140.4145 15.02922594217805,6936.026999999999,95.81299999999999,568.243,547.5409999999998,0.0
228,DELTA 1 DEB (YO),DEBRIS,2022-05-28 10:56:24,15.0292982,0.0014947,48.4277,247.0686,223.3692,136.6057,0.00026521,3.352e-05,0.0,0 DELTA 1 DEB (YO),1   228U 62002C   22148.45583542  .00003352  00000-0  26521-3 0  9997,2   228  48.4277 247.0686 0014947 223.3692 136.6057 15.02929820242061,6936.005,95.81299999999999,568.237,547.502,0.0
228,DELTA 1 DEB (YO),DEBRIS,2022-05-29 12:28:08,15.02935996,0.0014994000000000001,48.4276,241.8243,227.9882,131.9766,0.00024338,3.055e-05,0.0,0 DELTA 1 DEB (YO),1 00228U 62002C   22149.51954265  .00003055  00000-0  24338-3 0  9993,2 00228  48.4276 241.8243 0014994 227.9882 131.9766 15.02935996218096,6935.986,95.81200000000001,568.25,547.451,0.0
228,DELTA 1 DEB (YO),DEBRIS,2022-05-30 12:24:08,15.02941462,0.0015046,48.4273,236.9076,232.3386,127.6174,0.00019796,2.435e-05,0.0,0 DELTA 1 DEB (YO),1   228U 62002C   22150.51676343  .00002435  00000-0  19796-3 0  9996,2   228  48.4273 236.9076 0015046 232.3386 127.6174 15.02941462242378,6935.969,95.81200000000001,568.27,547.398,0.0
228,DELTA 1 DEB (YO),DEBRIS,2022-05-31 12:20:07,15.02945933,0.0015059000000000001,48.4273,231.9907,236.6638,123.2845,0.00016822,2.029e-05,0.0,0 DELTA 1 DEB (YO),1 00228U 62002C   22151.51398098  .00002029  00000-0  16822-3 0  9991,2 00228  48.4273 231.9907 0015059 236.6638 123.2845 15.02945933218396,6935.955,95.81200000000001,568.265,547.375,0.0
228,DELTA 1 DEB (YO),DEBRIS,2022-06-01 13:51:51,15.02950906,0.0015092,48.4271,226.7464,241.2435,118.6973,0.00014727,1.743e-05,0.0,0 DELTA 1 DEB (YO),1   228U 62002C   22152.57767653  .00001743  00000-0  14727-3 0  9999,2   228  48.4271 226.7464 0015092 241.2435 118.6973 15.02950906242683,6935.94,95.81200000000001,568.2719999999998,547.337,0.0
228,DELTA 1 DEB (YO),DEBRIS,2022-06-01 21:50:30,15.02951998,0.0015095,48.4271,225.1075,242.6805,117.2583,0.00013599,1.589e-05,0.0,0 DELTA 1 DEB (YO),1 00228U 62002C   22152.91008092  .00001589  00000-0  13599-3 0  9996,2 00228  48.4271 225.1075 0015095 242.6805 117.2583 15.02951998218602,6935.936,95.811,568.271,547.332,0.0
228,DELTA 1 DEB (YO),DEBRIS,2022-06-02 09:00:38,15.02953311,0.0015115999999999999,48.427,222.8128,244.6742,115.2617,0.0001223,1.402e-05,0.0,0 DELTA 1 DEB (YO),1 00228U 62002C   22153.37544675  .00001402  00000-0  12230-3 0  9994,2 00228  48.4270 222.8128 0015116 244.6742 115.2617 15.02953311218674,6935.932,95.811,568.2819999999998,547.313,0.0
228,DELTA 1 DEB (YO),DEBRIS,2022-06-02 21:46:30,15.02955614,0.0015132,48.4269,220.1907,246.9974,112.9355,0.00012628,1.457e-05,0.0,0 DELTA 1 DEB (YO),1 00228U 62002C   22153.90729261  .00001457  00000-0  12628-3 0  9990,2 00228  48.4269 220.1907 0015132 246.9974 112.9355 15.02955614218758,6935.925,95.811,568.286,547.295,0.0
228,DELTA 1 DEB (YO),DEBRIS,2022-06-03 10:32:21,15.02957203,0.0015138,48.4268,217.5682,249.2502,110.68,0.00012098,1.384e-05,0.0,0 DELTA 1 DEB (YO),1 00228U 62002C   22154.43913815  .00001384  00000-0  12098-3 0  9999,2 00228  48.4268 217.5682 0015138 249.2502 110.6800 15.02957203218831,6935.92,95.811,568.285,547.286,0.0
228,DELTA 1 DEB (YO),DEBRIS,2022-06-04 10:28:20,15.02959955,0.0015127,48.4282,212.6511,253.5786,106.3476,0.00011973,1.367e-05,0.0,0 DELTA 1 DEB (YO),1   228U 62002C   22155.43634739  .00001367  00000-0  11973-3 0  9997,2   228  48.4282 212.6511 0015127 253.5786 106.3476 15.02959955243110,6935.9119999999975,95.811,568.269,547.285,0.0
228,DELTA 1 DEB (YO),DEBRIS,2022-06-05 19:58:42,15.02964477,0.0015149,48.428000000000004,205.7676,259.6083,100.3134,0.00011303,1.276e-05,0.0,0 DELTA 1 DEB (YO),1 00228U 62002C   22156.83243658  .00001276  00000-0  11303-3 0  9994,2 00228  48.4280 205.7676 0015149 259.6083 100.3134 15.02964477219195,6935.898,95.811,568.27,547.256,0.0
228,DELTA 1 DEB (YO),DEBRIS,2022-06-06 07:08:49,15.02965391,0.0015154,48.428000000000004,203.4729,261.5745,98.3462,0.00010617,1.182e-05,0.0,0 DELTA 1 DEB (YO),1 00228U 62002C   22157.29779915  .00001182  00000-0  10617-3 0  9998,2 00228  48.4280 203.4729 0015154 261.5745  98.3462 15.02965391219266,6935.895,95.811,568.271,547.25,0.0
228,DELTA 1 DEB (YO),DEBRIS,2022-06-06 19:54:40,15.02967446,0.0015157999999999999,48.4279,200.8506,263.8834,96.0363,0.00011042,1.241e-05,0.0,0 DELTA 1 DEB (YO),1   228U 62002C   22157.82964112  .00001241  00000-0  11042-3 0  9991,2   228  48.4279 200.8506 0015158 263.8834  96.0363 15.02967446243474,6935.889,95.81,568.2669999999998,547.24,0.0
228,DELTA 1 DEB (YO),DEBRIS,2022-06-07 08:40:32,15.0296853,0.001516,48.4278,198.2281,266.1481,93.771,0.00010274,1.136e-05,0.0,0 DELTA 1 DEB (YO),1 00228U 62002C   22158.36148279  .00001136  00000-0  10274-3 0  9998,2 00228  48.4278 198.2281 0015160 266.1481  93.7710 15.02968530219423,6935.8859999999995,95.81,568.265,547.236,0.0
228,DELTA 1 DEB (YO),DEBRIS,2022-06-08 11:47:58,15.02973322,0.0015147000000000001,48.4277,192.6555,270.9968,88.9221,0.00011875,1.355e-05,0.0,0 DELTA 1 DEB (YO),1 00228U 62002C   22159.49164417  .00001355  00000-0  11875-3 0  9996,2 00228  48.4277 192.6555 0015147 270.9968  88.9221 15.02973322219598,6935.871,95.81,568.242,547.23,0.0
228,DELTA 1 DEB (YO),DEBRIS,2022-06-09 03:45:16,15.02975586,0.0015149,48.4276,189.3773,273.8506,86.0686,0.00012081,1.383e-05,0.0,0 DELTA 1 DEB (YO),1   228U 62002C   22160.15644394  .00001383  00000-0  12081-3 0  9999,2   228  48.4276 189.3773 0015149 273.8506  86.0686 15.02975586243825,6935.864000000001,95.81,568.236,547.222,0.0
228,DELTA 1 DEB (YO),DEBRIS,2022-06-09 08:32:28,15.02976184,0.0015151,48.4276,188.3938,274.7425,85.1769,0.00012074,1.382e-05,0.0,0 DELTA 1 DEB (YO),1 00228U 62002C   22160.35588378  .00001382  00000-0  12074-3 0  9991,2 00228  48.4276 188.3938 0015151 274.7425  85.1769 15.02976184219729,6935.861999999999,95.81,568.236,547.2180000000002,0.0
228,DELTA 1 DEB (YO),DEBRIS,2022-06-10 08:28:26,15.02979575,0.0015154,48.4276,183.4767,279.0234,80.8975,0.00012322,1.416e-05,0.0,0 DELTA 1 DEB (YO),1 00228U 62002C   22161.35308122  .00001416  00000-0  12322-3 0  9993,2 00228  48.4276 183.4767 0015154 279.0234  80.8975 15.02979575219878,6935.852,95.81,568.227,547.206,0.0
228,DELTA 1 DEB (YO),DEBRIS,2022-06-10 18:02:49,15.0298126,0.0015154,48.4276,181.5099,280.7416,79.1802,0.00012929,1.499e-05,0.0,0 DELTA 1 DEB (YO),1 00228U 62002C   22161.75195977  .00001499  00000-0  12929-3 0  9993,2 00228  48.4276 181.5099 0015154 280.7416  79.1802 15.02981260219937,6935.846,95.81,568.222,547.201,0.0
228,DELTA 1 DEB (YO),DEBRIS,2022-06-11 05:12:56,15.02983138,0.0015149,48.4276,179.2152,282.7059,77.2172,0.00013393,1.562e-05,0.0,0 DELTA 1 DEB (YO),1   228U 62002C   22162.21731740  .00001562  00000-0  13393-3 0  9996,2   228  48.4276 179.2152 0015149 282.7059  77.2172 15.02983138244135,6935.8409999999985,95.809,568.2130000000002,547.198,0.0
228,DELTA 1 DEB (YO),DEBRIS,2022-06-12 05:08:53,15.02986818,0.0015147000000000001,48.4277,174.298,287.0293,72.8971,0.0001364,1.596e-05,0.0,0 DELTA 1 DEB (YO),1 00228U 62002C   22163.21451045  .00001596  00000-0  13640-3 0  9996,2 00228  48.4277 174.2980 0015147 287.0293  72.8971 15.02986818220158,6935.829000000002,95.809,568.2,547.189,0.0
228,DELTA 1 DEB (YO),DEBRIS,2022-06-13 06:40:34,15.02993583,0.0015129000000000002,48.4277,169.053,291.6044,68.3268,0.00016828,2.033e-05,0.0,0 DELTA 1 DEB (YO),1   228U 62002C   22164.27817884  .00002033  00000-0  16828-3 0  9998,2   228  48.4277 169.0530 0015129 291.6044  68.3268 15.02993583244440,6935.808000000001,95.809,568.1669999999998,547.18,0.0
228,DELTA 1 DEB (YO),DEBRIS,2022-06-14 06:36:31,15.03001609,0.0015086,48.4278,164.1355,295.7527,64.184,0.00021538,2.677e-05,0.0,0 DELTA 1 DEB (YO),1 00228U 62002C   22165.27536434  .00002677  00000-0  21538-3 0  9996,2 00228  48.4278 164.1355 0015086 295.7527  64.1840 15.03001609220461,6935.784000000002,95.80799999999999,568.112,547.185,0.0
228,DELTA 1 DEB (YO),DEBRIS,2022-06-15 06:32:28,15.03005739,0.0015055,48.4263,159.2185,300.0721,59.871,0.00023497,2.946e-05,0.0,0 DELTA 1 DEB (YO),1 00228U 62002C   22166.27254762  .00002946  00000-0  23497-3 0  9993,2 00228  48.4263 159.2185 0015055 300.0721  59.8710 15.03005739220615,6935.771,95.80799999999999,568.078,547.194,0.0
